[{"OBJECT_NAME":"STARLINK-5332","OBJECT_ID":"2023-010S","EPOCH":"2026-03-09T22:54:58.332384","MEAN_MOTION":14.9832634,"ECCENTRICITY":0.00026497,"INCLINATION":70.0033,"RA_OF_ASC_NODE":3.7143,"ARG_OF_PERICENTER":266.7398,"MEAN_ANOMALY":93.3458,"EPHEMERIS_TYPE":0,"CLASSIFICATION_TYPE":"U","NORAD_CAT_ID":55285,"ELEMENT_SET_NO":999,"REV_AT_EPOCH":17468,"BSTAR":0.00037084989,"MEAN_MOTION_DOT":4.334e-5,"MEAN_MOTION_DDOT":0},{"OBJECT_NAME":"CENTAURI-7","OBJECT_ID":"2025-009DD","EPOCH":"2026-03-09T18:21:07.569216","MEAN_MOTION":14.97068612,"ECCENTRICITY":0.00019728,"INCLINATION":97.7123,"RA_OF_ASC_NODE":150.3372,"ARG_OF_PERICENTER":133.1699,"MEAN_ANOMALY":226.9688,"EPHEMERIS_TYPE":0,"CLASSIFICATION_TYPE":"U","NORAD_CAT_ID":62708,"ELEMENT_SET_NO":999,"REV_AT_EPOCH":6258,"BSTAR":0.00048082234,"MEAN_MOTION_DOT":5.487e-5,"MEAN_MOTION_DDOT":0}]
